[{"OBJECT_NAME":"TDRS 3","OBJECT_ID":"1988-091B","EPOCH":"2026-03-15T03:55:38.637696","MEAN_MOTION":1.00275169,"ECCENTRICITY":0.00423837,"INCLINATION":12.6744,"RA_OF_ASC_NODE":341.6168,"ARG_OF_PERICENTER":353.853,"MEAN_ANOMALY":207.3219,"EPHEMERIS_TYPE":0,"CLASSIFICATION_TYPE":"U","NORAD_CAT_ID":19548,"ELEMENT_SET_NO":999,"REV_AT_EPOCH":12444,"BSTAR":0,"MEAN_MOTION_DOT":-2.91e-6,"MEAN_MOTION_DDOT":0},{"OBJECT_NAME":"HST","OBJECT_ID":"1990-037B","EPOCH":"2026-03-15T02:20:10.455072","MEAN_MOTION":15.29577841,"ECCENTRICITY":0.00017548,"INCLINATION":28.4724,"RA_OF_ASC_NODE":3.1083,"ARG_OF_PERICENTER":179.9846,"MEAN_ANOMALY":180.075,"EPHEMERIS_TYPE":0,"CLASSIFICATION_TYPE":"U","NORAD_CAT_ID":20580,"ELEMENT_SET_NO":999,"REV_AT_EPOCH":77414,"BSTAR":0.00030179876,"MEAN_MOTION_DOT":9.139e-5,"MEAN_MOTION_DDOT":0},{"OBJECT_NAME":"TDRS 5","OBJECT_ID":"1991-054B","EPOCH":"2026-03-14T13:14:38.571648","MEAN_MOTION":1.00270774,"ECCENTRICITY":0.00098439,"INCLINATION":14.083,"RA_OF_ASC_NODE":354.4745,"ARG_OF_PERICENTER":276.6361,"MEAN_ANOMALY":292.034,"EPHEMERIS_TYPE":0,"CLASSIFICATION_TYPE":"U","NORAD_CAT_ID":21639,"ELEMENT_SET_NO":999,"REV_AT_EPOCH":12676,"BSTAR":0,"MEAN_MOTION_DOT":9.1e-7,"MEAN_MOTION_DDOT":0},{"OBJECT_NAME":"TDRS 6","OBJECT_ID":"1993-003B","EPOCH":"2026-03-15T03:55:38.637696","MEAN_MOTION":1.00274842,"ECCENTRICITY":0.00051164,"INCLINATION":14.1813,"RA_OF_ASC_NODE":357.7568,"ARG_OF_PERICENTER":196.1492,"MEAN_ANOMALY":351.9481,"EPHEMERIS_TYPE":0,"CLASSIFICATION_TYPE":"U","NORAD_CAT_ID":22314,"ELEMENT_SET_NO":999,"REV_AT_EPOCH":12146,"BSTAR":0,"MEAN_MOTION_DOT":-2.88e-6,"MEAN_MOTION_DDOT":0},{"OBJECT_NAME":"TDRS 7","OBJECT_ID":"1995-035B","EPOCH":"2026-03-14T17:13:50.287296","MEAN_MOTION":1.00273789,"ECCENTRICITY":0.00086615,"INCLINATION":13.4164,"RA_OF_ASC_NODE":348.8391,"ARG_OF_PERICENTER":49.0187,"MEAN_ANOMALY":122.0274,"EPHEMERIS_TYPE":0,"CLASSIFICATION_TYPE":"U","NORAD_CAT_ID":23613,"ELEMENT_SET_NO":999,"REV_AT_EPOCH":11230,"BSTAR":0,"MEAN_MOTION_DOT":-2.32e-6,"MEAN_MOTION_DDOT":0},{"OBJECT_NAME":"ISS (ZARYA)","OBJECT_ID":"1998-067A","EPOCH":"2026-03-15T04:37:08.870592","MEAN_MOTION":15.48288531,"ECCENTRICITY":0.00063636,"INCLINATION":51.633,"RA_OF_ASC_NODE":45.1519,"ARG_OF_PERICENTER":192.7288,"MEAN_ANOMALY":167.354,"EPHEMERIS_TYPE":0,"CLASSIFICATION_TYPE":"U","NORAD_CAT_ID":25544,"ELEMENT_SET_NO":999,"REV_AT_EPOCH":55718,"BSTAR":0.0001887181,"MEAN_MOTION_DOT":9.711e-5,"MEAN_MOTION_DDOT":0},{"OBJECT_NAME":"TERRA","OBJECT_ID":"1999-068A","EPOCH":"2026-03-15T06:19:25.401216","MEAN_MOTION":14.61021128,"ECCENTRICITY":0.00030404,"INCLINATION":97.9582,"RA_OF_ASC_NODE":127.485,"ARG_OF_PERICENTER":139.1395,"MEAN_ANOMALY":286.4754,"EPHEMERIS_TYPE":0,"CLASSIFICATION_TYPE":"U","NORAD_CAT_ID":25994,"ELEMENT_SET_NO":999,"REV_AT_EPOCH":39589,"BSTAR":0.0001033874,"MEAN_MOTION_DOT":4.63e-6,"MEAN_MOTION_DDOT":0},{"OBJECT_NAME":"TDRS 8","OBJECT_ID":"2000-034A","EPOCH":"2026-03-14T20:53:34.340640","MEAN_MOTION":1.00274529,"ECCENTRICITY":0.00061938,"INCLINATION":12.5362,"RA_OF_ASC_NODE":32.1091,"ARG_OF_PERICENTER":315.0835,"MEAN_ANOMALY":223.5433,"EPHEMERIS_TYPE":0,"CLASSIFICATION_TYPE":"U","NORAD_CAT_ID":26388,"ELEMENT_SET_NO":999,"REV_AT_EPOCH":9423,"BSTAR":0,"MEAN_MOTION_DOT":-1.9e-6,"MEAN_MOTION_DDOT":0},{"OBJECT_NAME":"TIMED","OBJECT_ID":"2001-055B","EPOCH":"2026-03-15T01:35:21.465888","MEAN_MOTION":14.95042082,"ECCENTRICITY":0.00029848,"INCLINATION":74.0665,"RA_OF_ASC_NODE":64.4972,"ARG_OF_PERICENTER":268.9424,"MEAN_ANOMALY":91.1419,"EPHEMERIS_TYPE":0,"CLASSIFICATION_TYPE":"U","NORAD_CAT_ID":26998,"ELEMENT_SET_NO":999,"REV_AT_EPOCH":31675,"BSTAR":0.00016253317,"MEAN_MOTION_DOT":1.74e-5,"MEAN_MOTION_DDOT":0},{"OBJECT_NAME":"AQUA","OBJECT_ID":"2002-022A","EPOCH":"2026-03-15T07:19:50.087712","MEAN_MOTION":14.61991517,"ECCENTRICITY":6.32e-5,"INCLINATION":98.4183,"RA_OF_ASC_NODE":41.773,"ARG_OF_PERICENTER":102.4511,"MEAN_ANOMALY":4.713,"EPHEMERIS_TYPE":0,"CLASSIFICATION_TYPE":"U","NORAD_CAT_ID":27424,"ELEMENT_SET_NO":999,"REV_AT_EPOCH":26955,"BSTAR":0.00023099495,"MEAN_MOTION_DOT":1.109e-5,"MEAN_MOTION_DDOT":0},{"OBJECT_NAME":"SORCE","OBJECT_ID":"2003-004A","EPOCH":"2026-03-15T06:43:22.876896","MEAN_MOTION":15.03143696,"ECCENTRICITY":0.00156695,"INCLINATION":39.9905,"RA_OF_ASC_NODE":77.2333,"ARG_OF_PERICENTER":98.3903,"MEAN_ANOMALY":261.8668,"EPHEMERIS_TYPE":0,"CLASSIFICATION_TYPE":"U","NORAD_CAT_ID":27651,"ELEMENT_SET_NO":999,"REV_AT_EPOCH":25776,"BSTAR":0.00029612385,"MEAN_MOTION_DOT":3.931e-5,"MEAN_MOTION_DDOT":0},{"OBJECT_NAME":"AURA","OBJECT_ID":"2004-026A","EPOCH":"2026-03-15T05:51:08.463744","MEAN_MOTION":14.61163333,"ECCENTRICITY":0.0001098,"INCLINATION":98.3318,"RA_OF_ASC_NODE":29.983,"ARG_OF_PERICENTER":89.1472,"MEAN_ANOMALY":270.9854,"EPHEMERIS_TYPE":0,"CLASSIFICATION_TYPE":"U","NORAD_CAT_ID":28376,"ELEMENT_SET_NO":999,"REV_AT_EPOCH":15249,"BSTAR":0.00022938784,"MEAN_MOTION_DOT":1.081e-5,"MEAN_MOTION_DDOT":0},{"OBJECT_NAME":"SWIFT","OBJECT_ID":"2004-047A","EPOCH":"2026-03-14T23:34:37.407360","MEAN_MOTION":15.59791571,"ECCENTRICITY":0.00043322,"INCLINATION":20.5518,"RA_OF_ASC_NODE":186.906,"ARG_OF_PERICENTER":92.0555,"MEAN_ANOMALY":268.0386,"EPHEMERIS_TYPE":0,"CLASSIFICATION_TYPE":"U","NORAD_CAT_ID":28485,"ELEMENT_SET_NO":999,"REV_AT_EPOCH":17209,"BSTAR":0.00062495817,"MEAN_MOTION_DOT":0.00053453,"MEAN_MOTION_DDOT":0},{"OBJECT_NAME":"THEMIS A","OBJECT_ID":"2007-004A","EPOCH":"2026-03-14T04:27:28.265184","MEAN_MOTION":0.87846514,"ECCENTRICITY":0.84005789,"INCLINATION":6.9118,"RA_OF_ASC_NODE":118.9982,"ARG_OF_PERICENTER":179.6773,"MEAN_ANOMALY":182.3633,"EPHEMERIS_TYPE":0,"CLASSIFICATION_TYPE":"U","NORAD_CAT_ID":30580,"ELEMENT_SET_NO":999,"REV_AT_EPOCH":4044,"BSTAR":-0.032176147,"MEAN_MOTION_DOT":-1.4e-6,"MEAN_MOTION_DDOT":0},{"OBJECT_NAME":"THEMIS D","OBJECT_ID":"2007-004D","EPOCH":"2026-03-15T06:02:11.728032","MEAN_MOTION":0.87835477,"ECCENTRICITY":0.83538054,"INCLINATION":6.7445,"RA_OF_ASC_NODE":84.2654,"ARG_OF_PERICENTER":217.3134,"MEAN_ANOMALY":146.2334,"EPHEMERIS_TYPE":0,"CLASSIFICATION_TYPE":"U","NORAD_CAT_ID":30797,"ELEMENT_SET_NO":999,"REV_AT_EPOCH":4025,"BSTAR":0,"MEAN_MOTION_DOT":-1.02e-6,"MEAN_MOTION_DDOT":0},{"OBJECT_NAME":"THEMIS E","OBJECT_ID":"2007-004E","EPOCH":"2026-03-15T06:03:11.631744","MEAN_MOTION":0.87837194,"ECCENTRICITY":0.8357625,"INCLINATION":4.2926,"RA_OF_ASC_NODE":99.3909,"ARG_OF_PERICENTER":203.1564,"MEAN_ANOMALY":160.9189,"EPHEMERIS_TYPE":0,"CLASSIFICATION_TYPE":"U","NORAD_CAT_ID":30798,"ELEMENT_SET_NO":999,"REV_AT_EPOCH":6509,"BSTAR":0,"MEAN_MOTION_DOT":-1.11e-6,"MEAN_MOTION_DDOT":0},{"OBJECT_NAME":"FGRST (GLAST)","OBJECT_ID":"2008-029A","EPOCH":"2026-03-14T20:35:15.451008","MEAN_MOTION":15.23378177,"ECCENTRICITY":0.00077768,"INCLINATION":25.5813,"RA_OF_ASC_NODE":139.1902,"ARG_OF_PERICENTER":294.3571,"MEAN_ANOMALY":65.6155,"EPHEMERIS_TYPE":0,"CLASSIFICATION_TYPE":"U","NORAD_CAT_ID":33053,"ELEMENT_SET_NO":999,"REV_AT_EPOCH":98143,"BSTAR":0.00018087156,"MEAN_MOTION_DOT":4.765e-5,"MEAN_MOTION_DDOT":0}]
