TDRS 3                  
1 19548U 88091B   26074.16364164 -.00000291  00000+0  00000+0 0  9994
2 19548  12.6744 341.6168 0042383 353.8530 207.3219  1.00275169124449
HST                     
1 20580U 90037B   26074.09734323  .00009139  00000+0  30180-3 0  9990
2 20580  28.4724   3.1083 0001754 179.9846 180.0750 15.29577841774143
TDRS 5                  
1 21639U 91054B   26073.55183532  .00000091  00000+0  00000+0 0  9998
2 21639  14.0830 354.4745 0009843 276.6361 292.0340  1.00270774126766
TDRS 6                  
1 22314U 93003B   26074.16364164 -.00000288  00000+0  00000+0 0  9994
2 22314  14.1813 357.7568 0005116 196.1492 351.9481  1.00274842121461
TDRS 7                  
1 23613U 95035B   26073.71794314 -.00000232  00000+0  00000+0 0  9997
2 23613  13.4164 348.8391 0008661  49.0187 122.0274  1.00273789112304
ISS (ZARYA)             
1 25544U 98067A   26074.19246378  .00009711  00000+0  18872-3 0  9995
2 25544  51.6330  45.1519 0006363 192.7288 167.3540 15.48288531557187
TERRA                   
1 25994U 99068A   26074.26348844  .00000463  00000+0  10339-3 0  9990
2 25994  97.9582 127.4850 0003040 139.1395 286.4754 14.61021128395892
TDRS 8                  
1 26388U 00034A   26073.87053635 -.00000190  00000+0  00000+0 0  9998
2 26388  12.5362  32.1091 0006193 315.0835 223.5433  1.00274529 94238
TIMED                   
1 26998U 01055B   26074.06622067  .00001740  00000+0  16253-3 0  9994
2 26998  74.0665  64.4972 0002984 268.9424  91.1419 14.95042082316756
AQUA                    
1 27424U 02022A   26074.30544083  .00001109  00000+0  23099-3 0  9997
2 27424  98.4183  41.7730 0000632 102.4511   4.7130 14.61991517269557
SORCE                   
1 27651U 03004A   26074.28012589  .00003931  00000+0  29612-3 0  9990
2 27651  39.9905  77.2333 0015669  98.3903 261.8668 15.03143696257764
AURA                    
1 28376U 04026A   26074.24384796  .00001081  00000+0  22939-3 0  9997
2 28376  98.3318  29.9830 0001098  89.1472 270.9854 14.61163333152497
SWIFT                   
1 28485U 04047A   26073.98237740  .00053453  00000+0  62496-3 0  9999
2 28485  20.5518 186.9060 0004332  92.0555 268.0386 15.59791571172090
THEMIS A                
1 30580U 07004A   26073.18574381 -.00000140  00000+0 -32176-1 0  9998
2 30580   6.9118 118.9982 8400578 179.6773 182.3633  0.87846514 40444
THEMIS D                
1 30797U 07004D   26074.25152463 -.00000102  00000+0  00000+0 0  9996
2 30797   6.7445  84.2654 8353805 217.3134 146.2334  0.87835477 40259
THEMIS E                
1 30798U 07004E   26074.25221796 -.00000111  00000+0  00000+0 0  9993
2 30798   4.2926  99.3909 8357625 203.1564 160.9189  0.87837194 65099
FGRST (GLAST)           
1 33053U 08029A   26073.85781772  .00004765  00000+0  18087-3 0  9994
2 33053  25.5813 139.1902 0007776 294.3571  65.6155 15.23378177981430
